NORAD_CAT_ID,OBJECT_NAME,OBJECT_TYPE,EPOCH,MEAN_MOTION,ECCENTRICITY,INCLINATION,RA_OF_ASC_NODE,ARG_OF_PERICENTER,MEAN_ANOMALY,BSTAR,MEAN_MOTION_DOT,MEAN_MOTION_DDOT,TLE_LINE0,TLE_LINE1,TLE_LINE2,SEMIMAJOR_AXIS,PERIOD,APOGEE,PERIGEE,DECAYED
51143.0,STARLINK-3184,PAYLOAD,2022-11-24 05:22:11,15.08833785,0.0002425,53.2175,302.7183,37.4651,322.651,2.0579e-05,3.9e-07,0.0,0 STARLINK-3184,1 51143U 22005AR  22328.22373941  .00000039  00000-0  20579-4 0  9990,2 51143  53.2175 302.7183 0002425  37.4651 322.6510 15.08833785 48326,6917.899,95.438,541.442,538.087,0.0
51143.0,STARLINK-3184,PAYLOAD,2022-11-24 08:32:57,15.08834342,0.0002441,53.2175,302.1236,37.1772,322.9389,2.1233e-05,5e-07,0.0,0 STARLINK-3184,1 51143U 22005AR  22328.35621935  .00000050  00000-0  21233-4 0  9994,2 51143  53.2175 302.1236 0002441  37.1772 322.9389 15.08834342 47234,6917.898,95.438,541.451,538.0740000000002,0.0
51143.0,STARLINK-3184,PAYLOAD,2022-11-25 06:48:21,15.08833362,0.00024,53.217,297.9609,34.4223,325.6924,-2.1168e-06,-3.22e-06,0.0,0 STARLINK-3184,1 51143U 22005AR  22329.28358158 -.00000322  00000-0 -21168-5 0  9993,2 51143  53.2170 297.9609 0002400  34.4223 325.6924 15.08833362 48484,6917.901,95.438,541.4259999999998,538.105,0.0
51143.0,STARLINK-3184,PAYLOAD,2022-11-25 14:45:16,15.08839326,0.0002396,53.2171,296.474,35.971,324.1443,6.5381e-05,7.52e-06,0.0,0 STARLINK-3184,1 51143U 22005AR  22329.61477721  .00000752  00000-0  65381-4 0  9997,2 51143  53.2171 296.4740 0002396  35.9710 324.1443 15.08839326 48538,6917.882,95.438,541.405,538.09,0.0
51143.0,STARLINK-3184,PAYLOAD,2022-11-26 06:39:08,15.08839384,0.0002487,53.217,293.4996,33.8178,326.2973,9.3412e-05,1.199e-05,0.0,0 STARLINK-3184,1 51143U 22005AR  22330.27717624  .00001199  00000-0  93412-4 0  9992,2 51143  53.2170 293.4996 0002487  33.8178 326.2973 15.08839384 47526,6917.882,95.438,541.4680000000002,538.0269999999998,0.0
51143.0,STARLINK-3184,PAYLOAD,2022-11-26 20:57:35,15.08846125,0.0002349,53.2166,290.8222,35.9429,324.1721,7.3731e-05,8.85e-06,0.0,0 STARLINK-3184,1 51143U 22005AR  22330.87333102  .00000885  00000-0  73731-4 0  9996,2 51143  53.2166 290.8222 0002349  35.9429 324.1721 15.08846125 47612,6917.861999999999,95.437,541.352,538.102,0.0
51143.0,STARLINK-3184,PAYLOAD,2022-11-26 22:32:58,15.08842426,0.000241,53.2169,290.5252,35.025,325.0901,0.00014531,2.025e-05,0.0,0 STARLINK-3184,1 51143U 22005AR  22330.93957062  .00002025  00000-0  14531-3 0  9990,2 51143  53.2169 290.5252 0002410  35.0250 325.0901 15.08842426 48731,6917.873000000001,95.437,541.405,538.071,0.0
51143.0,STARLINK-3184,PAYLOAD,2022-11-27 06:29:55,15.08826712,0.0002347,53.2163,289.0386,35.4448,324.67,-2.9264e-06,-3.35e-06,0.0,0 STARLINK-3184,1 51143U 22005AR  22331.27078551 -.00000335  00000-0 -29264-5 0  9990,2 51143  53.2163 289.0386 0002347  35.4448 324.6700 15.08826712 48785,6917.920999999999,95.438,541.41,538.1619999999998,0.0
51143.0,STARLINK-3184,PAYLOAD,2022-11-27 14:26:51,15.08830641,0.0002466,53.2169,287.5527,36.9739,323.1423,-1.0448e-07,-2.9e-06,0.0,0 STARLINK-3184,1 51143U 22005AR  22331.60198447 -.00000290  00000-0 -10448-6 0  9999,2 51143  53.2169 287.5527 0002466  36.9739 323.1423 15.08830641 47727,6917.909000000002,95.438,541.48,538.068,0.0
51143.0,STARLINK-3184,PAYLOAD,2022-11-28 06:20:41,15.0884425,0.000247,53.2169,284.578,38.4958,321.621,8.9534e-05,1.137e-05,0.0,0 STARLINK-3184,1 51143U 22005AR  22332.26437420  .00001137  00000-0  89534-4 0  9998,2 51143  53.2169 284.5780 0002470  38.4958 321.6210 15.08844250 48932,6917.8669999999975,95.437,541.441,538.024,0.0
51143.0,STARLINK-3184,PAYLOAD,2022-11-28 14:17:38,15.08833679,0.0002727,53.2169,283.0911,41.8744,318.2456,5.8145000000000025e-06,-1.96e-06,0.0,0 STARLINK-3184,1 51143U 22005AR  22332.59558483 -.00000196  00000-0  58145-5 0  9997,2 51143  53.2169 283.0911 0002727  41.8744 318.2456 15.08833679 48980,6917.9,95.438,541.651,537.878,0.0
51143.0,STARLINK-3184,PAYLOAD,2022-11-29 03:00:43,15.08838542,0.0002199,53.2164,280.7123,27.8782,332.2327,1.112e-05,-1.11e-06,0.0,0 STARLINK-3184,1 51143U 22005AR  22333.12549900 -.00000111  00000-0  11120-4 0  9999,2 51143  53.2164 280.7123 0002199  27.8782 332.2327 15.08838542 49060,6917.885,95.438,541.271,538.229,0.0
51143.0,STARLINK-3184,PAYLOAD,2022-11-29 06:11:28,15.08843545,0.0002427,53.217,280.119,36.7184,323.3974,0.00012477,1.698e-05,0.0,0 STARLINK-3184,1 51143U 22005AR  22333.25797335  .00001698  00000-0  12477-3 0  9995,2 51143  53.2170 280.1190 0002427  36.7184 323.3974 15.08843545 49084,6917.87,95.437,541.414,538.056,0.0
51143.0,STARLINK-3184,PAYLOAD,2022-11-29 14:08:24,15.08839911,0.0002511,53.2162,278.6317,39.0031,321.1141,0.00017938,2.568e-05,0.0,0 STARLINK-3184,1 51143U 22005AR  22333.58917564  .00002568  00000-0  17938-3 0  9993,2 51143  53.2162 278.6317 0002511  39.0031 321.1141 15.08839911 48026,6917.880999999999,95.438,541.4830000000002,538.009,0.0
51143.0,STARLINK-3184,PAYLOAD,2022-11-30 06:02:17,15.08834994,0.0002264,53.2167,275.6578,52.133,307.9867,-5.1979e-05,-1.115e-05,0.0,0 STARLINK-3184,1 51143U 22005AR  22334.25158685 -.00001115  00000-0 -51979-4 0  9992,2 51143  53.2167 275.6578 0002264  52.1330 307.9867 15.08834994 49237,6917.896,95.438,541.327,538.194,0.0
51143.0,STARLINK-3184,PAYLOAD,2022-11-30 17:09:58,15.08837501,0.0002184,53.2179,273.5757,43.2461,316.8703,9.8033e-05,1.272e-05,0.0,0 STARLINK-3184,1 51143U 22005AR  22334.71526141  .00001272  00000-0  98033-4 0  9993,2 51143  53.2179 273.5757 0002184  43.2461 316.8703 15.08837501 49306,6917.888000000001,95.438,541.264,538.242,0.0
51143.0,STARLINK-3184,PAYLOAD,2022-11-30 20:20:45,15.08835766,0.000247,53.2172,272.9819,40.7514,319.3663,1.9063e-05,1.5e-07,0.0,0 STARLINK-3184,1 51143U 22005AR  22334.84774571  .00000015  00000-0  19063-4 0  9999,2 51143  53.2172 272.9819 0002470  40.7514 319.3663 15.08835766 48213,6917.893,95.438,541.467,538.05,0.0
51143.0,STARLINK-3184,PAYLOAD,2022-12-01 05:53:04,15.08840036,0.0002626,53.2171,271.1991,38.1366,321.9811,-3.2863e-05,-8.12e-06,0.0,0 STARLINK-3184,1 51143U 22005AR  22335.24518609 -.00000812  00000-0 -32863-4 0  9992,2 51143  53.2171 271.1991 0002626  38.1366 321.9811 15.08840036 48279,6917.88,95.438,541.562,537.929,0.0
51143.0,STARLINK-3184,PAYLOAD,2022-12-02 02:33:04,15.08840172,0.0002457,53.2172,267.332,40.3084,319.809,0.00016283,2.304e-05,0.0,0 STARLINK-3184,1 51143U 22005AR  22336.10630092  .00002304  00000-0  16283-3 0  9992,2 51143  53.2172 267.3320 0002457  40.3084 319.8090 15.08840172 49511,6917.88,95.438,541.445,538.045,0.0
51143.0,STARLINK-3184,PAYLOAD,2022-12-02 12:05:24,15.08828975,0.000261,53.2176,265.5482,36.9342,323.1829,2.4728e-05,1.05e-06,0.0,0 STARLINK-3184,1 51143U 22005AR  22336.50375327  .00000105  00000-0  24728-4 0  9994,2 51143  53.2176 265.5482 0002610  36.9342 323.1829 15.08828975 49574,6917.9140000000025,95.438,541.585,537.974,0.0
51143.0,STARLINK-3184,PAYLOAD,2022-12-03 11:56:11,15.0882689,0.0002531,53.2172,261.0863,40.2775,319.8404,-2.8541000000000008e-06,-3.34e-06,0.0,0 STARLINK-3184,1 51143U 22005AR  22337.49736027 -.00000334  00000-0 -28541-5 0  9995,2 51143  53.2172 261.0863 0002531  40.2775 319.8404 15.08826890 48613,6917.92,95.438,541.536,538.035,0.0
51143.0,STARLINK-3184,PAYLOAD,2022-12-03 19:53:07,15.08827348,0.0002465,53.2166,259.6006,33.8583,326.2566,2.0265e-05,3.4e-07,0.0,0 STARLINK-3184,1 51143U 22005AR  22337.82855880  .00000034  00000-0  20265-4 0  9990,2 51143  53.2166 259.6006 0002465  33.8583 326.2566 15.08827348 48664,6917.919,95.438,541.489,538.0790000000002,0.0
51143.0,STARLINK-3184,PAYLOAD,2022-12-04 00:39:16,15.08832002,0.0002488,53.2163,258.7085,35.4923,324.6235,5.878e-05,6.47e-06,0.0,0 STARLINK-3184,1 51143U 22005AR  22338.02727619  .00000647  00000-0  58780-4 0  9994,2 51143  53.2163 258.7085 0002488  35.4923 324.6235 15.08832002 49804,6917.905,95.438,541.491,538.049,0.0
51143.0,STARLINK-3184,PAYLOAD,2022-12-04 11:46:58,15.08842951,0.0002566999999999,53.2168,256.6264,37.9315,322.1857,0.00012272,1.665e-05,0.0,0 STARLINK-3184,1 51143U 22005AR  22338.49094930  .00001665  00000-0  12272-3 0  9994,2 51143  53.2168 256.6264 0002567  37.9315 322.1857 15.08842951 48766,6917.871,95.437,541.512,537.961,0.0
51143.0,STARLINK-3184,PAYLOAD,2022-12-05 11:37:44,15.08848548,0.000223,53.2178,252.1662,32.4061,327.7068,0.00025145,3.717e-05,0.0,0 STARLINK-3184,1 51143U 22005AR  22339.48453950  .00003717  00000-0  25145-3 0  9998,2 51143  53.2178 252.1662 0002230  32.4061 327.7068 15.08848548 48915,6917.854,95.437,541.262,538.177,0.0
51143.0,STARLINK-3184,PAYLOAD,2022-12-05 17:59:16,15.08847134,0.0002465,53.2157,250.9765,37.8246,322.2919,0.00019132,2.758e-05,0.0,0 STARLINK-3184,1 51143U 22005AR  22339.74950217  .00002758  00000-0  19132-3 0  9998,2 51143  53.2157 250.9765 0002465  37.8246 322.2919 15.08847134 50060,6917.859,95.437,541.429,538.018,0.0
51143.0,STARLINK-3184,PAYLOAD,2022-12-06 11:28:31,15.08845192,0.000239,53.2163,247.7062,34.3591,325.7555,2.253800000000001e-05,7e-07,0.0,0 STARLINK-3184,1 51143U 22005AR  22340.47814491  .00000070  00000-0  22538-4 0  9993,2 51143  53.2163 247.7062 0002390  34.3591 325.7555 15.08845192 50171,6917.865,95.437,541.383,538.076,0.0
51143.0,STARLINK-3184,PAYLOAD,2022-12-06 21:00:51,15.08833525,0.0002249,53.217,245.9216,34.0877,326.0259,-0.00014638,-2.617e-05,0.0,0 STARLINK-3184,1 51143U 22005AR  22340.87559544 -.00002617  00000-0 -14638-3 0  9994,2 51143  53.2170 245.9216 0002249  34.0877 326.0259 15.08833525 50236,6917.9,95.438,541.321,538.2090000000002,0.0
51143.0,STARLINK-3184,PAYLOAD,2022-12-07 11:19:19,15.0883423,0.0002035,53.2166,243.2449,40.2453,319.869,-2.4139e-05,-6.72e-06,0.0,0 STARLINK-3184,1 51143U 22005AR  22341.47175429 -.00000672  00000-0 -24139-4 0  9994,2 51143  53.2166 243.2449 0002035  40.2453 319.8690 15.08834230 49211,6917.898,95.438,541.1709999999998,538.355,0.0
